[{"OBJECT_NAME":"STARLINK-30946","OBJECT_ID":"2023-183P","EPOCH":"2026-03-09T22:00:01.999584","MEAN_MOTION":15.2756105,"ECCENTRICITY":0.00013588,"INCLINATION":43.0004,"RA_OF_ASC_NODE":40.3196,"ARG_OF_PERICENTER":263.0647,"MEAN_ANOMALY":298.7187,"EPHEMERIS_TYPE":0,"CLASSIFICATION_TYPE":"U","NORAD_CAT_ID":58450,"ELEMENT_SET_NO":999,"REV_AT_EPOCH":578,"BSTAR":0.0011263703,"MEAN_MOTION_DOT":0.00030845,"MEAN_MOTION_DDOT":0},{"OBJECT_NAME":"OBJECT D","OBJECT_ID":"2025-197D","EPOCH":"2026-03-09T23:30:56.303712","MEAN_MOTION":15.25287442,"ECCENTRICITY":0.00144425,"INCLINATION":97.4091,"RA_OF_ASC_NODE":257.3677,"ARG_OF_PERICENTER":3.398,"MEAN_ANOMALY":356.7353,"EPHEMERIS_TYPE":0,"CLASSIFICATION_TYPE":"U","NORAD_CAT_ID":65491,"ELEMENT_SET_NO":999,"REV_AT_EPOCH":2822,"BSTAR":0.00037200129,"MEAN_MOTION_DOT":9.321e-5,"MEAN_MOTION_DDOT":0}]
